$$SOE
2460154.500000000, A.D. 2023-Jul-29 00:00:00.0000, 4.077658268679952E+08, 1.082130379147163E+08, 1.137193350873692E+08,
2460161.500000000, A.D. 2023-Aug-05 00:00:00.0000, 4.031665800962794E+08, 1.179018982671096E+08, 1.147034571104411E+08,
2460168.500000000, A.D. 2023-Aug-12 00:00:00.0000, 3.983303993408082E+08, 1.275216248144676E+08, 1.156200257794257E+08,
2460175.500000000, A.D. 2023-Aug-19 00:00:00.0000, 3.932576914384258E+08, 1.370657788322566E+08, 1.164677930639087E+08,
2460182.500000000, A.D. 2023-Aug-26 00:00:00.0000, 3.879490429039544E+08, 1.465278410753975E+08, 1.172455346675270E+08,
2460189.500000000, A.D. 2023-Sep-02 00:00:00.0000, 3.824052262725247E+08, 1.559012161354232E+08, 1.179520523739041E+08,
2460196.500000000, A.D. 2023-Sep-09 00:00:00.0000, 3.766272064322389E+08, 1.651792371146697E+08, 1.185861764660016E+08,
2460203.500000000, A.D. 2023-Sep-16 00:00:00.0000, 3.706161470918886E+08, 1.743551705733802E+08, 1.191467681965668E+08,
2460210.500000000, A.D. 2023-Sep-23 00:00:00.0000, 3.643734177743135E+08, 1.834222220480737E+08, 1.196327222914203E+08,
2460217.500000000, A.D. 2023-Sep-30 00:00:00.0000, 3.579006009656485E+08, 1.923735433412634E+08, 1.200429696080185E+08,
2460224.500000000, A.D. 2023-Oct-07 00:00:00.0000, 3.511994970326995E+08, 2.012022410505300E+08, 1.203764801140475E+08,
2460231.500000000, A.D. 2023-Oct-14 00:00:00.0000, 3.442721279165941E+08, 2.099013830352998E+08, 1.206322658152881E+08,
2460238.500000000, A.D. 2023-Oct-21 00:00:00.0000, 3.371207427989760E+08, 2.184640044310221E+08, 1.208093834618204E+08,
2460245.500000000, A.D. 2023-Oct-28 00:00:00.0000, 3.297478242800896E+08, 2.268831154755713E+08, 1.209069373405227E+08,
2460252.500000000, A.D. 2023-Nov-04 00:00:00.0000, 3.221560937818313E+08, 2.351517103806358E+08, 1.209240821983401E+08,
2460259.500000000, A.D. 2023-Nov-11 00:00:00.0000, 3.143485163159100E+08, 2.432627766481683E+08, 1.208600262230506E+08,
2460266.500000000, A.D. 2023-Nov-18 00:00:00.0000, 3.063283047975985E+08, 2.512093047642826E+08, 1.207140340468447E+08,
2460273.500000000, A.D. 2023-Nov-25 00:00:00.0000, 2.980989239373666E+08, 2.589842982869087E+08, 1.204854297575192E+08,
2460280.500000000, A.D. 2023-Dec-02 00:00:00.0000, 2.896640936971226E+08, 2.665807843067442E+08, 1.201735999026916E+08,
2460287.500000000, A.D. 2023-Dec-09 00:00:00.0000, 2.810277923470791E+08, 2.739918242100419E+08, 1.197779964634220E+08,
2460294.500000000, A.D. 2023-Dec-16 00:00:00.0000, 2.721942593693387E+08, 2.812105247397026E+08, 1.192981397597552E+08,
2460301.500000000, A.D. 2023-Dec-23 00:00:00.0000, 2.631679985162376E+08, 2.882300500213638E+08, 1.187336212993367E+08,
2460308.500000000, A.D. 2023-Dec-30 00:00:00.0000, 2.539537796417617E+08, 2.950436355765109E+08, 1.180841067621049E+08,
2460315.500000000, A.D. 2024-Jan-06 00:00:00.0000, 2.445566374894072E+08, 3.016446019322309E+08, 1.173493390742062E+08,
2460322.500000000, A.D. 2024-Jan-13 00:00:00.0000, 2.349818705703932E+08, 3.080263659909018E+08, 1.165291411187044E+08,
2460329.500000000, A.D. 2024-Jan-20 00:00:00.0000, 2.252350413208837E+08, 3.141824532066685E+08, 1.156234182071570E+08,
2460336.500000000, A.D. 2024-Jan-27 00:00:00.0000, 2.153219754728331E+08, 3.201065111772064E+08, 1.146321605332904E+08,
2460343.500000000, A.D. 2024-Feb-03 00:00:00.0000, 2.052487601754723E+08, 3.257923236558805E+08, 1.135554455529572E+08,
2460350.500000000, A.D. 2024-Feb-10 00:00:00.0000, 1.950217411140045E+08, 3.312338246433039E+08, 1.123934402239262E+08,
2460357.500000000, A.D. 2024-Feb-17 00:00:00.0000, 1.846475187371128E+08, 3.364251125122669E+08, 1.111464030762307E+08,
2460364.500000000, A.D. 2024-Feb-24 00:00:00.0000, 1.741329436060166E+08, 3.413604641229943E+08, 1.098146860938731E+08,
2460371.500000000, A.D. 2024-Mar-02 00:00:00.0000, 1.634851108755029E+08, 3.460343488348448E+08, 1.083987363857019E+08,
2460378.500000000, A.D. 2024-Mar-09 00:00:00.0000, 1.527113540314843E+08, 3.504414422872067E+08, 1.068990976112783E+08,
2460385.500000000, A.D. 2024-Mar-16 00:00:00.0000, 1.418192382715132E+08, 3.545766400803825E+08, 1.053164111262682E+08,
2460392.500000000, A.D. 2024-Mar-23 00:00:00.0000, 1.308165534228465E+08, 3.584350723970543E+08, 1.036514169331681E+08,
2460399.500000000, A.D. 2024-Mar-30 00:00:00.0000, 1.197113041611336E+08, 3.620121194635969E+08, 1.019049546254972E+08,
2460406.500000000, A.D. 2024-Apr-06 00:00:00.0000, 1.085116977910406E+08, 3.653034244076667E+08, 1.000779640121721E+08,
2460413.500000000, A.D. 2024-Apr-13 00:00:00.0000, 9.722613315386932E+07, 3.683049042792158E+08, 9.817148515523657E+07,
2460420.500000000, A.D. 2024-Apr-20 00:00:00.0000, 8.586318973524602E+07, 3.710127618399288E+08, 9.618665811783150E+07,
2460427.500000000, A.D. 2024-Apr-27 00:00:00.0000, 7.443161548490566E+07, 3.734234974848600E+08, 9.412472250617167E+07,
2460434.500000000, A.D. 2024-May-04 00:00:00.0000, 6.294031347092516E+07, 3.755339205207186E+08, 9.198701673296654E+07,
2460441.500000000, A.D. 2024-May-11 00:00:00.0000, 5.139832764833013E+07, 3.773411596300113E+08, 8.977497696755344E+07,
2460448.500000000, A.D. 2024-May-18 00:00:00.0000, 3.981482787252757E+07, 3.788426724768133E+08, 8.749013576461394E+07,
2460455.500000000, A.D. 2024-May-25 00:00:00.0000, 2.819909423736103E+07, 3.800362543848565E+08, 8.513412036840206E+07,
2460462.500000000, A.D. 2024-Jun-01 00:00:00.0000, 1.656050085918928E+07, 3.809200459723983E+08, 8.270865068413827E+07,
2460469.500000000, A.D. 2024-Jun-08 00:00:00.0000, 4.908499420994114E+06, 3.814925396670578E+08, 8.021553689576155E+07,
2460476.500000000, A.D. 2024-Jun-15 00:00:00.0000, -6.747397051132147E+06, 3.817525855966442E+08, 7.765667674334778E+07,
2460483.500000000, A.D. 2024-Jun-22 00:00:00.0000, -1.839763110648714E+07, 3.816993979877259E+08, 7.503405265563357E+07,
2460490.500000000, A.D. 2024-Jun-29 00:00:00.0000, -3.003262052283249E+07, 3.813325602094930E+08, 7.234972879142483E+07,
2460497.500000000, A.D. 2024-Jul-06 00:00:00.0000, -4.164277797078017E+07, 3.806520259542969E+08, 6.960584755621912E+07,
2460504.500000000, A.D. 2024-Jul-13 00:00:00.0000, -5.321852866192710E+07, 3.796581193610465E+08, 6.680462566368674E+07,
2460511.500000000, A.D. 2024-Jul-20 00:00:00.0000, -6.475032787894657E+07, 3.783515352234270E+08, 6.394835003767771E+07,
2460518.500000000, A.D. 2024-Jul-27 00:00:00.0000, -7.622867895337154E+07, 3.767333383198861E+08, 6.103937355587721E+07,
2460525.500000000, A.D. 2024-Aug-03 00:00:00.0000, -8.764415132836582E+07, 3.748049614933919E+08, 5.808011059953168E+07,
2460532.500000000, A.D. 2024-Aug-10 00:00:00.0000, -9.898739845202467E+07, 3.725682024866811E+08, 5.507303241463113E+07,
2460539.500000000, A.D. 2024-Aug-17 00:00:00.0000, -1.102491753674142E+08, 3.700252195720856E+08, 5.202066230393891E+07,
2460546.500000000, A.D. 2024-Aug-24 00:00:00.0000, -1.214203558880717E+08, 3.671785259785185E+08, 4.892557066855879E+07,
2460553.500000000, A.D. 2024-Aug-31 00:00:00.0000, -1.324919491634594E+08, 3.640309830864260E+08, 4.579036990748124E+07,
2460560.500000000, A.D. 2024-Sep-07 00:00:00.0000, -1.434551151932658E+08, 3.605857925565075E+08, 4.261770917677109E+07,
2460567.500000000, A.D. 2024-Sep-14 00:00:00.0000, -1.543011791351586E+08, 3.568464884350230E+08, 3.941026910746333E+07,
2460574.500000000, A.D. 2024-Sep-21 00:00:00.0000, -1.650216463696523E+08, 3.528169297038735E+08, 3.617075672773600E+07,
2460581.500000000, A.D. 2024-Sep-28 00:00:00.0000, -1.756082187459792E+08, 3.485012901065671E+08, 3.290190039527324E+07,
2460588.500000000, A.D. 2024-Oct-05 00:00:00.0000, -1.860528082837106E+08, 3.439040453089287E+08, 2.960644442798981E+07,
2460595.500000000, A.D. 2024-Oct-12 00:00:00.0000, -1.963475486474444E+08, 3.390299604425617E+08, 2.628714373490298E+07,
2460602.500000000, A.D. 2024-Oct-19 00:00:00.0000, -2.064848061051009E+08, 3.338840778352162E+08, 2.294675860960752E+07,
2460609.500000000, A.D. 2024-Oct-26 00:00:00.0000, -2.164571899666790E+08, 3.284717042002456E+08, 1.958804964638661E+07,
2460616.500000000, A.D. 2024-Nov-02 00:00:00.0000, -2.262575622188705E+08, 3.227983972113103E+08, 1.621377276476778E+07,
2460623.500000000, A.D. 2024-Nov-09 00:00:00.0000, -2.358790462392973E+08, 3.168699515594292E+08, 1.282667435568410E+07,
2460630.500000000, A.D. 2024-Nov-16 00:00:00.0000, -2.453150345518429E+08, 3.106923845698650E+08, 9.429486565767005E+06,
2460637.500000000, A.D. 2024-Nov-23 00:00:00.0000, -2.545591955702970E+08, 3.042719214059494E+08, 6.024922728695169E+06,
2460644.500000000, A.D. 2024-Nov-30 00:00:00.0000, -2.636054791227255E+08, 2.976149798931059E+08, 2.615672936667487E+06,
2460651.500000000, A.D. 2024-Dec-07 00:00:00.0000, -2.724481203443322E+08, 2.907281554577148E+08, -7.956002381251156E+05,
2460658.500000000, A.D. 2024-Dec-14 00:00:00.0000, -2.810816426418527E+08, 2.836182074769458E+08, -4.206265696691319E+06,
2460665.500000000, A.D. 2024-Dec-21 00:00:00.0000, -2.895008620689668E+08, 2.762920458706394E+08, -7.613727319813833E+06,
2460672.500000000, A.D. 2024-Dec-28 00:00:00.0000, -2.977008911621175E+08, 2.687567150361133E+08, -1.101542744307975E+07,
2460679.500000000, A.D. 2025-Jan-04 00:00:00.0000, -3.056771396651913E+08, 2.610193775610370E+08, -1.440885033704956E+07,
2460686.500000000, A.D. 2025-Jan-11 00:00:00.0000, -3.134253140005389E+08, 2.530872994318601E+08, -1.779152538478605E+07,
2460693.500000000, A.D. 2025-Jan-18 00:00:00.0000, -3.209414164422641E+08, 2.449678358768623E+08, -2.116102994493330E+07,
2460700.500000000, A.D. 2025-Jan-25 00:00:00.0000, -3.282217437873617E+08, 2.366684174212763E+08, -2.451499196002186E+07,
2460707.500000000, A.D. 2025-Feb-01 00:00:00.0000, -3.352628853767499E+08, 2.281965361705549E+08, -2.785109232979394E+07,
2460714.500000000, A.D. 2025-Feb-08 00:00:00.0000, -3.420617204516085E+08, 2.195597323831217E+08, -3.116706705473080E+07,
2460721.500000000, A.D. 2025-Feb-15 00:00:00.0000, -3.486154148612443E+08, 2.107655813497599E+08, -3.446070915679199E+07,
$$EOE